{"type":"FeatureCollection","features":[{"type":"Feature","properties":{"code_udi":"069000229"},"geometry":{"type":"MultiPolygon","coordinates":[[[[4.89631,45.70265],[4.89569,45.70307],[4.8957,45.70343],[4.89607,45.70442],[4.89675,45.70525],[4.90183,45.7109],[4.90197,45.71108],[4.90533,45.71415],[4.90606,45.71481],[4.90955,45.71792],[4.9144,45.71887],[4.91359,45.71548],[4.91175,45.71206],[4.909,45.70895],[4.90544,45.70627],[4.9012,45.70412],[4.89645,45.70259],[4.89639,45.70258],[4.89631,45.70265]]]]}},{"type":"Feature","properties":{"code_udi":"069000321"},"geometry":{"type":"MultiPolygon","coordinates":[[[[4.77176,45.72879],[4.77176,45.72879],[4.7731,45.727],[4.77323,45.72687],[4.77276,45.72697],[4.76984,45.72812],[4.77176,45.72879]]]]}},{"type":"Feature","properties":{"code_udi":"033000493"},"geometry":{"type":"MultiPolygon","coordinates":[[[[-0.52255,44.88803],[-0.51946,44.88834],[-0.51851,44.88832],[-0.51742,44.88808],[-0.51703,44.88791],[-0.51713,44.88722],[-0.51687,44.88714],[-0.51408,44.88698],[-0.5128,44.88679],[-0.51278,44.88639],[-0.51227,44.88631],[-0.51206,44.88591],[-0.51192,44.8856],[-0.51129,44.88566],[-0.51016,44.88601],[-0.50935,44.88611],[-0.50842,44.88654],[-0.50834,44.8866],[-0.50835,44.88619],[-0.50836,44.88596],[-0.50847,44.88337],[-0.5086,44.88199],[-0.50883,44.88043],[-0.50952,44.87767],[-0.51013,44.87599],[-0.51017,44.87588],[-0.51021,44.87578],[-0.5112,44.87363],[-0.51038,44.87183],[-0.51036,44.87176],[-0.51031,44.87154],[-0.51016,44.87096],[-0.51021,44.87096],[-0.50984,44.86598],[-0.50985,44.86593],[-0.51002,44.8654],[-0.51002,44.86539],[-0.51009,44.86487],[-0.51017,44.86435],[-0.51023,44.864],[-0.51036,44.86333],[-0.51044,44.86297],[-0.51046,44.86289],[-0.51068,44.86195],[-0.5109,44.8611],[-0.51103,44.86066],[-0.51104,44.86062],[-0.51127,44.86001],[-0.51172,44.85813],[-0.51175,44.85802],[-0.51189,44.85746],[-0.5119,44.8574],[-0.51193,44.85719],[-0.51204,44.85651],[-0.51198,44.85635],[-0.51176,44.85545],[-0.51172,44.85533],[-0.51155,44.85477],[-0.51144,44.8544],[-0.51127,44.85378],[-0.5112,44.85352],[-0.51108,44.85299],[-0.51103,44.85276],[-0.5109,44.85212],[-0.51087,44.85191],[-0.51077,44.85121],[-0.51075,44.85099],[-0.5107,44.85051],[-0.51067,44.85018],[-0.51063,44.84918],[-0.51063,44.84879],[-0.51064,44.84836],[-0.51064,44.84807],[-0.51071,44.847],[-0.51074,44.84672],[-0.51094,44.84545],[-0.51103,44.84497],[-0.51122,44.84418],[-0.51125,44.84404],[-0.51148,44.84327],[-0.51156,44.84302],[-0.51207,44.84166],[-0.51225,44.84125],[-0.51245,44.84081],[-0.51251,44.8407],[-0.5128,44.84014],[-0.51173,44.83931],[-0.50896,44.83605],[-0.50716,44.83246],[-0.5064,44.82869],[-0.50645,44.82802],[-0.5069,44.82791],[-0.50771,44.82757],[-0.50909,44.82624],[-0.51015,44.82464],[-0.51178,44.82293],[-0.51288,44.8221],[-0.51318,44.82173],[-0.51354,44.82145],[-0.51584,44.82101],[-0.52893,44.84367],[-0.5295,44.84365],[-0.53063,44.84353],[-0.53283,44.84313],[-0.53715,44.84238],[-0.53885,44.8422],[-0.54087,44.84216],[-0.54221,44.8424],[-0.54216,44.84253],[-0.54034,44.84415],[-0.53817,44.84636],[-0.5377,44.84714],[-0.53748,44.84903],[-0.5376,44.85002],[-0.53802,44.85119],[-0.53841,44.85257],[-0.53892,44.85387],[-0.53916,44.85485],[-0.53911,44.85652],[-0.53882,44.85837],[-0.53837,44.85942],[-0.53783,44.86128],[-0.53783,44.86155],[-0.53709,44.86422],[-0.53646,44.86698],[-0.5365,44.86775],[-0.53664,44.8681],[-0.53893,44.86837],[-0.54143,44.86889],[-0.54149,44.86897],[-0.54149,44.86898],[-0.54094,44.87173],[-0.54036,44.87301],[-0.54024,44.87319],[-0.5396,44.87429],[-0.53901,44.87511],[-0.53844,44.87625],[-0.53733,44.87822],[-0.53659,44.87995],[-0.5357,44.88231],[-0.53528,44.8843],[-0.53525,44.88615],[-0.53552,44.88911],[-0.5316,44.88916],[-0.53001,44.88907],[-0.5291,44.88864],[-0.52592,44.88827],[-0.52255,44.88803]]]]}},{"type":"Feature","properties":{"code_udi":"059000721"},"geometry":{"type":"MultiPolygon","coordinates":[[[[2.97335,50.67535],[2.97383,50.6748],[2.97426,50.67417],[2.97481,50.67377],[2.97564,50.67245],[2.97662,50.67142],[2.97766,50.67042],[2.97766,50.67029],[2.97895,50.67086],[2.97924,50.67095],[2.97931,50.67095],[2.97938,50.67109],[2.98159,50.67238],[2.98387,50.6734],[2.9862,50.67429],[2.98692,50.67465],[2.98721,50.6746],[2.98825,50.6736],[2.98839,50.67356],[2.98889,50.67359],[2.98959,50.67391],[2.99075,50.67471],[2.9911,50.67476],[2.99411,50.67339],[2.99545,50.67282],[2.99668,50.67176],[2.99807,50.67054],[2.99934,50.67102],[3.00061,50.67106],[3.00102,50.67083],[3.00123,50.67065],[3.00249,50.66989],[3.00553,50.66551],[3.00658,50.6642],[3.00713,50.66316],[3.00741,50.66271],[3.00791,50.6623],[3.00874,50.66176],[3.00985,50.66055],[3.01012,50.66013],[3.01069,50.65954],[3.0097,50.65923],[3.00863,50.65874],[3.00841,50.65857],[3.00856,50.65843],[3.01007,50.65569],[3.01069,50.65388],[3.01067,50.65356],[3.01032,50.6533],[3.00997,50.65321],[3.00954,50.65339],[3.00926,50.65366],[3.00898,50.65366],[3.00798,50.6534],[3.00522,50.65311],[3.00274,50.65235],[3.0026,50.6524],[3.00035,50.65453],[2.99903,50.65552],[2.9977,50.6562],[2.9963,50.65666],[2.99396,50.65725],[2.99185,50.65785],[2.9896,50.65845],[2.9889,50.65881],[2.9865,50.65959],[2.98573,50.66004],[2.98537,50.66036],[2.98433,50.66104],[2.98369,50.66123],[2.98355,50.66099],[2.9832,50.6609],[2.98179,50.66082],[2.98066,50.66052],[2.97973,50.66048],[2.97872,50.66008],[2.97703,50.65923],[2.97647,50.6592],[2.97647,50.65951],[2.97632,50.65956],[2.97534,50.65929],[2.97534,50.6592],[2.97518,50.65897],[2.97426,50.65898],[2.97361,50.65876],[2.97263,50.65872],[2.97199,50.65841],[2.97072,50.6581],[2.96937,50.65753],[2.96929,50.65739],[2.97061,50.65513],[2.97047,50.65504],[2.96969,50.65483],[2.96975,50.65361],[2.97023,50.65294],[2.97092,50.65221],[2.97091,50.65108],[2.97217,50.64956],[2.97293,50.64883],[2.97314,50.64847],[2.97438,50.64711],[2.97474,50.64648],[2.97451,50.64558],[2.9745,50.64442],[2.97225,50.64381],[2.97242,50.64324],[2.97275,50.64183],[2.97218,50.64144],[2.97192,50.64122],[2.97118,50.64035],[2.97039,50.6395],[2.96997,50.63905],[2.96878,50.63833],[2.97046,50.6365],[2.97054,50.63633],[2.97028,50.63575],[2.96956,50.63506],[2.96788,50.63542],[2.97002,50.63366],[2.96508,50.63126],[2.96628,50.63011],[2.96418,50.62938],[2.96282,50.63076],[2.96213,50.62976],[2.96168,50.62971],[2.95983,50.62896],[2.9588,50.62985],[2.9558,50.6286],[2.95506,50.62945],[2.95409,50.63048],[2.9534,50.63093],[2.95196,50.63019],[2.95103,50.62953],[2.95011,50.63009],[2.94909,50.62952],[2.94823,50.63007],[2.94746,50.6304],[2.94675,50.63071],[2.94628,50.63027],[2.94475,50.62925],[2.94338,50.62824],[2.94183,50.63103],[2.94107,50.63434],[2.94134,50.63767],[2.94186,50.63896],[2.94185,50.639],[2.94253,50.6422],[2.94415,50.64526],[2.94529,50.64655],[2.94339,50.65004],[2.94301,50.65116],[2.94241,50.65451],[2.94244,50.65481],[2.94211,50.65594],[2.94221,50.6594],[2.94341,50.66279],[2.94566,50.66594],[2.94887,50.66875],[2.9529,50.67109],[2.95308,50.67117],[2.95326,50.67126],[2.95532,50.67217],[2.95548,50.67223],[2.95901,50.67342],[2.95937,50.67352],[2.95962,50.67359],[2.9597,50.67361],[2.96133,50.6742],[2.96165,50.67429],[2.96295,50.67459],[2.96626,50.67557],[2.96734,50.6758],[2.96793,50.67589],[2.97209,50.67695],[2.97335,50.67535]]],[[[2.94368,50.62782],[2.94368,50.62778],[2.94361,50.62785],[2.94368,50.62782]]]]}},{"type":"Feature","properties":{"code_udi":"033000447"},"geometry":{"type":"MultiPolygon","coordinates":[[[[-0.50842,44.88654],[-0.50935,44.88611],[-0.51016,44.88601],[-0.51129,44.88566],[-0.51192,44.8856],[-0.51206,44.88591],[-0.51227,44.88631],[-0.51278,44.88639],[-0.5128,44.88679],[-0.51408,44.88698],[-0.51687,44.88714],[-0.51713,44.88722],[-0.51703,44.88791],[-0.51742,44.88808],[-0.51851,44.88832],[-0.51946,44.88834],[-0.52255,44.88803],[-0.52592,44.88827],[-0.5291,44.88864],[-0.53001,44.88907],[-0.5316,44.88916],[-0.53552,44.88911],[-0.5357,44.89023],[-0.53652,44.89399],[-0.53787,44.89693],[-0.53808,44.89724],[-0.5383,44.89782],[-0.53879,44.89885],[-0.53893,44.89934],[-0.53999,44.90142],[-0.54063,44.90289],[-0.54222,44.9057],[-0.54287,44.90721],[-0.54384,44.90885],[-0.54448,44.91018],[-0.54502,44.91107],[-0.54524,44.91156],[-0.54558,44.91218],[-0.54702,44.91544],[-0.54772,44.91668],[-0.54785,44.91708],[-0.54835,44.9181],[-0.54887,44.91966],[-0.54982,44.92346],[-0.54528,44.92394],[-0.54365,44.92425],[-0.54143,44.9243],[-0.53953,44.92431],[-0.53902,44.9241],[-0.53849,44.92379],[-0.53672,44.92375],[-0.53656,44.92443],[-0.53625,44.9257],[-0.53612,44.92584],[-0.53613,44.92611],[-0.53569,44.92747],[-0.53563,44.92756],[-0.53489,44.92915],[-0.53472,44.92938],[-0.53401,44.93039],[-0.53318,44.93031],[-0.53254,44.9302],[-0.53241,44.9302],[-0.53166,44.93179],[-0.53163,44.93191],[-0.53156,44.93188],[-0.52779,44.92942],[-0.52476,44.92651],[-0.52255,44.92324],[-0.52143,44.92106],[-0.521,44.92034],[-0.52072,44.91985],[-0.52015,44.91883],[-0.5197,44.91795],[-0.51963,44.9178],[-0.51961,44.91777],[-0.51918,44.91685],[-0.51887,44.91628],[-0.51875,44.91612],[-0.51873,44.9161],[-0.51747,44.91451],[-0.51591,44.9122],[-0.51483,44.91026],[-0.5148,44.91021],[-0.51391,44.90861],[-0.51307,44.90685],[-0.51242,44.90524],[-0.51192,44.90378],[-0.51183,44.90348],[-0.51144,44.90211],[-0.51123,44.90143],[-0.51048,44.89913],[-0.51038,44.89884],[-0.51036,44.89877],[-0.50996,44.89785],[-0.50897,44.89471],[-0.50866,44.89309],[-0.50844,44.8915],[-0.50834,44.8901],[-0.50833,44.88987],[-0.50829,44.88853],[-0.50834,44.8866],[-0.50842,44.88654]]]]}},{"type":"Feature","properties":{"code_udi":"033000495"},"geometry":{"type":"MultiPolygon","coordinates":[[[[-0.56759,44.79441],[-0.57021,44.80068],[-0.57324,44.80727],[-0.57376,44.81175],[-0.5746,44.81457],[-0.57446,44.81462],[-0.57481,44.81528],[-0.57548,44.81657],[-0.57529,44.81653],[-0.57267,44.81488],[-0.55833,44.8125],[-0.55738,44.81252],[-0.55657,44.81286],[-0.55504,44.81371],[-0.55448,44.81395],[-0.55405,44.81423],[-0.55264,44.81494],[-0.55184,44.81541],[-0.54542,44.81872],[-0.54444,44.81929],[-0.54376,44.81957],[-0.5431,44.81993],[-0.54172,44.82071],[-0.54166,44.8208],[-0.54123,44.82104],[-0.54086,44.82127],[-0.54018,44.82155],[-0.53784,44.82274],[-0.53765,44.82279],[-0.53646,44.82174],[-0.53488,44.81991],[-0.53233,44.81625],[-0.53115,44.81408],[-0.53067,44.81351],[-0.53045,44.81288],[-0.53018,44.81244],[-0.52933,44.80993],[-0.52922,44.80962],[-0.52903,44.80921],[-0.52887,44.80881],[-0.52802,44.80636],[-0.52762,44.80521],[-0.52741,44.8043],[-0.52872,44.8036],[-0.5308,44.80248],[-0.5309,44.80243],[-0.53096,44.8024],[-0.53204,44.80182],[-0.53207,44.8018],[-0.53223,44.80172],[-0.53318,44.80121],[-0.53468,44.8004],[-0.53483,44.80032],[-0.53493,44.80027],[-0.53711,44.7991],[-0.53723,44.79903],[-0.53789,44.79868],[-0.53889,44.79815],[-0.53906,44.79806],[-0.53961,44.79776],[-0.54018,44.79745],[-0.54081,44.79713],[-0.5438,44.7958],[-0.54408,44.79569],[-0.546,44.79502],[-0.54617,44.79497],[-0.54745,44.79459],[-0.54759,44.79456],[-0.54795,44.79446],[-0.54808,44.79443],[-0.55123,44.79376],[-0.55153,44.79371],[-0.55402,44.79339],[-0.55432,44.79336],[-0.55762,44.79319],[-0.55781,44.79318],[-0.55866,44.79319],[-0.55888,44.79319],[-0.56114,44.79329],[-0.56129,44.7933],[-0.56143,44.79331],[-0.56158,44.79332],[-0.56176,44.79334],[-0.56254,44.79308],[-0.56399,44.79285],[-0.56399,44.79284],[-0.56418,44.7928],[-0.56671,44.79241],[-0.56732,44.79228],[-0.56759,44.79441]]]]}},{"type":"Feature","properties":{"code_udi":"033002237"},"geometry":{"type":"MultiPolygon","coordinates":[[[[-0.55038,44.93489],[-0.5507,44.93218],[-0.5504,44.92733],[-0.55041,44.92629],[-0.54989,44.92364],[-0.54982,44.92346],[-0.54887,44.91966],[-0.54835,44.9181],[-0.54785,44.91708],[-0.54772,44.91668],[-0.54991,44.91613],[-0.5504,44.91593],[-0.55054,44.91498],[-0.55077,44.91444],[-0.55132,44.91411],[-0.55195,44.91409],[-0.55241,44.91431],[-0.55287,44.91474],[-0.55352,44.91491],[-0.5544,44.91494],[-0.55496,44.91474],[-0.55632,44.91403],[-0.55732,44.91378],[-0.55833,44.91375],[-0.55871,44.91379],[-0.55923,44.914],[-0.56,44.91412],[-0.56056,44.91397],[-0.56099,44.91364],[-0.56128,44.91291],[-0.56171,44.91268],[-0.56228,44.91262],[-0.5633,44.91282],[-0.56519,44.91268],[-0.5666,44.91301],[-0.56933,44.91303],[-0.57021,44.91288],[-0.57102,44.91263],[-0.57101,44.91245],[-0.57068,44.91219],[-0.5699,44.91189],[-0.56963,44.91153],[-0.56933,44.91068],[-0.56945,44.91046],[-0.57038,44.91013],[-0.57081,44.90966],[-0.57124,44.90938],[-0.57194,44.90936],[-0.57243,44.90917],[-0.57344,44.9091],[-0.57394,44.90891],[-0.57451,44.90885],[-0.57464,44.90889],[-0.57572,44.90904],[-0.57666,44.90892],[-0.57728,44.90868],[-0.57732,44.9081],[-0.57756,44.90791],[-0.57818,44.90771],[-0.57964,44.90769],[-0.57976,44.90773],[-0.57996,44.90781],[-0.58004,44.90808],[-0.57946,44.90909],[-0.57948,44.9094],[-0.58087,44.90941],[-0.58207,44.90942],[-0.58288,44.90913],[-0.58402,44.9091],[-0.58483,44.90881],[-0.58558,44.90875],[-0.58678,44.90859],[-0.58727,44.90835],[-0.58803,44.90824],[-0.58847,44.90832],[-0.58983,44.90873],[-0.59207,44.90926],[-0.59283,44.90929],[-0.59314,44.90919],[-0.59467,44.90924],[-0.59498,44.90914],[-0.5958,44.90912],[-0.59834,44.90932],[-0.59974,44.90929],[-0.60143,44.90871],[-0.603,44.90858],[-0.60394,44.90833],[-0.60561,44.90747],[-0.60708,44.90644],[-0.60719,44.90752],[-0.60709,44.91123],[-0.60598,44.91485],[-0.6039,44.91826],[-0.60093,44.92131],[-0.59718,44.9239],[-0.59279,44.92593],[-0.58835,44.92719],[-0.58463,44.92912],[-0.58452,44.92917],[-0.58275,44.92984],[-0.58195,44.93011],[-0.57559,44.93165],[-0.57535,44.93168],[-0.57273,44.93197],[-0.57213,44.93201],[-0.57119,44.93207],[-0.57083,44.93209],[-0.56886,44.93214],[-0.56859,44.93214],[-0.56746,44.93247],[-0.56724,44.93252],[-0.56359,44.9329],[-0.56292,44.93309],[-0.56284,44.9331],[-0.56255,44.93318],[-0.56132,44.9334],[-0.5602,44.9338],[-0.5601,44.93382],[-0.55953,44.93399],[-0.55896,44.93414],[-0.5576,44.9345],[-0.55615,44.93485],[-0.55586,44.93492],[-0.55085,44.93566],[-0.55019,44.93567],[-0.55038,44.93489]]]]}},{"type":"Feature","properties":{"code_udi":"059000585"},"geometry":{"type":"MultiPolygon","coordinates":[[[[3.12996,50.60256],[3.12957,50.60281],[3.13005,50.60321],[3.12849,50.60389],[3.12464,50.6064],[3.12423,50.60653],[3.12353,50.60689],[3.12106,50.60776],[3.11958,50.60836],[3.11847,50.60868],[3.11826,50.6085],[3.11495,50.60964],[3.11357,50.60777],[3.11357,50.60718],[3.11398,50.60619],[3.11396,50.60543],[3.11303,50.60454],[3.11282,50.60414],[3.11238,50.60382],[3.11169,50.60391],[3.11056,50.60401],[3.11011,50.60356],[3.10683,50.60115],[3.1062,50.60062],[3.10375,50.59888],[3.10276,50.59852],[3.09993,50.59875],[3.09775,50.59922],[3.09569,50.59875],[3.09563,50.59874],[3.09507,50.59837],[3.09426,50.5987],[3.09298,50.59768],[3.09096,50.59882],[3.09134,50.59904],[3.08811,50.59945],[3.08498,50.60017],[3.08401,50.5998],[3.0843,50.59958],[3.0827,50.59882],[3.08295,50.59855],[3.08129,50.59831],[3.08026,50.60016],[3.07815,50.60013],[3.07749,50.5996],[3.07661,50.6001],[3.07154,50.60007],[3.06823,50.59835],[3.06223,50.59547],[3.06205,50.59595],[3.06205,50.59671],[3.06341,50.59784],[3.06378,50.5986],[3.06307,50.59852],[3.0618,50.59852],[3.06053,50.59866],[3.05865,50.59908],[3.05694,50.59935],[3.05468,50.59946],[3.05377,50.59933],[3.05363,50.59942],[3.05463,50.60077],[3.05549,50.60171],[3.05628,50.60278],[3.05665,50.60313],[3.05709,50.60376],[3.05759,50.60425],[3.05925,50.60659],[3.06223,50.61223],[3.06251,50.61213],[3.06377,50.61128],[3.06502,50.61046],[3.06572,50.61028],[3.06719,50.60954],[3.06819,50.60918],[3.06888,50.60868],[3.0695,50.60782],[3.07063,50.60701],[3.07146,50.6066],[3.0731,50.60793],[3.07396,50.60883],[3.07488,50.60986],[3.07536,50.60991],[3.07527,50.61039],[3.07887,50.61336],[3.07859,50.61354],[3.07948,50.61428],[3.08188,50.61572],[3.08421,50.61678],[3.0841,50.61701],[3.08574,50.61771],[3.08335,50.62021],[3.08158,50.62022],[3.0812,50.62259],[3.08512,50.62346],[3.08826,50.62507],[3.07496,50.64179],[3.07526,50.64188],[3.0756,50.64307],[3.07554,50.64414],[3.0758,50.64453],[3.07753,50.64381],[3.07788,50.64481],[3.07811,50.64509],[3.07861,50.64542],[3.08299,50.64725],[3.08046,50.64912],[3.08129,50.6499],[3.08177,50.64971],[3.08349,50.65082],[3.08325,50.65095],[3.08354,50.65155],[3.0819,50.65205],[3.08231,50.65276],[3.08232,50.65301],[3.07923,50.65408],[3.08007,50.6555],[3.07846,50.65612],[3.07911,50.65718],[3.07877,50.65725],[3.07728,50.65807],[3.07669,50.65891],[3.07697,50.6591],[3.07645,50.65988],[3.07615,50.66065],[3.07406,50.66065],[3.07401,50.66137],[3.07351,50.66173],[3.07315,50.66214],[3.07274,50.66251],[3.07113,50.66422],[3.06899,50.66649],[3.06909,50.66675],[3.06987,50.66692],[3.06967,50.66741],[3.07059,50.66762],[3.07081,50.66716],[3.07314,50.66772],[3.07237,50.66848],[3.07453,50.66997],[3.07385,50.67045],[3.0735,50.67053],[3.07333,50.67057],[3.07309,50.67062],[3.07277,50.67064],[3.07262,50.67069],[3.07241,50.67079],[3.07237,50.67094],[3.07244,50.6711],[3.07279,50.6716],[3.0727,50.67218],[3.07446,50.67281],[3.07605,50.67313],[3.07623,50.67309],[3.07674,50.67309],[3.07723,50.67326],[3.07762,50.67345],[3.07957,50.67384],[3.08489,50.67422],[3.09023,50.67392],[3.0911,50.67376],[3.09276,50.67363],[3.09285,50.67362],[3.09458,50.67336],[3.09472,50.67334],[3.09659,50.67297],[3.09668,50.67295],[3.09798,50.67263],[3.09802,50.67262],[3.09815,50.67259],[3.09816,50.67259],[3.09868,50.67246],[3.0988,50.67243],[3.09892,50.6724],[3.09911,50.67235],[3.10135,50.67168],[3.10196,50.67148],[3.10233,50.67135],[3.10294,50.67114],[3.10715,50.66934],[3.10741,50.66918],[3.11224,50.66844],[3.1169,50.66708],[3.12108,50.66518],[3.12461,50.66282],[3.12738,50.66008],[3.12927,50.65705],[3.13022,50.65385],[3.1302,50.65129],[3.13066,50.65121],[3.13087,50.65116],[3.13106,50.65111],[3.13177,50.65092],[3.13663,50.64928],[3.14086,50.64704],[3.14428,50.6443],[3.14675,50.64118],[3.14817,50.6378],[3.14848,50.63432],[3.14822,50.6332],[3.14958,50.63097],[3.15049,50.62774],[3.15049,50.62765],[3.1511,50.62682],[3.15233,50.62369],[3.15253,50.62152],[3.15253,50.62152],[3.15254,50.62143],[3.15254,50.62138],[3.15262,50.62047],[3.15258,50.61979],[3.15249,50.61979],[3.15245,50.61831],[3.15147,50.61525],[3.15146,50.61523],[3.14956,50.61226],[3.14905,50.61177],[3.14858,50.61103],[3.14599,50.60843],[3.1427,50.60616],[3.14255,50.60607],[3.13832,50.60408],[3.13357,50.60265],[3.12897,50.60192],[3.12996,50.60256]]],[[[3.02835,50.58991],[3.02863,50.58991],[3.03494,50.59145],[3.03585,50.59139],[3.03505,50.5903],[3.0423,50.58831],[3.05074,50.58961],[3.05132,50.58869],[3.05129,50.58384],[3.05115,50.58384],[3.0455,50.58395],[3.04002,50.58481],[3.03493,50.58638],[3.03156,50.58806],[3.03087,50.58815],[3.03018,50.58835],[3.02992,50.5884],[3.02934,50.58851],[3.02623,50.58924],[3.02581,50.58936],[3.02479,50.58968],[3.02467,50.58972],[3.02444,50.58978],[3.02411,50.5899],[3.0238,50.58999],[3.02338,50.59014],[3.02339,50.59015],[3.02205,50.59061],[3.02391,50.59137],[3.02563,50.59181],[3.02796,50.59225],[3.02816,50.59135],[3.02835,50.58991]]],[[[3.0568,50.58421],[3.05983,50.58469],[3.06018,50.58469],[3.0601,50.58441],[3.05728,50.58403],[3.05633,50.58403],[3.0568,50.58421]]]]}},{"type":"Feature","properties":{"code_udi":"059000687"},"geometry":{"type":"MultiPolygon","coordinates":[[[[3.01872,50.66687],[3.01891,50.66584],[3.01875,50.66566],[3.0184,50.66557],[3.01804,50.66539],[3.01797,50.66508],[3.01817,50.66368],[3.01809,50.66354],[3.0171,50.66319],[3.01597,50.66257],[3.01468,50.66173],[3.01433,50.66159],[3.01275,50.66048],[3.01146,50.65982],[3.01069,50.65954],[3.01012,50.66013],[3.00985,50.66055],[3.00874,50.66176],[3.00791,50.6623],[3.00741,50.66271],[3.00713,50.66316],[3.00658,50.6642],[3.00553,50.66551],[3.00249,50.66989],[3.00123,50.67065],[3.00102,50.67083],[3.00061,50.67106],[2.99934,50.67102],[2.99807,50.67054],[2.99668,50.67176],[2.99545,50.67282],[2.99411,50.67339],[2.9911,50.67476],[2.99075,50.67471],[2.98959,50.67391],[2.98889,50.67359],[2.98839,50.67356],[2.98825,50.6736],[2.98721,50.6746],[2.98692,50.67465],[2.9862,50.67429],[2.98387,50.6734],[2.98159,50.67238],[2.97938,50.67109],[2.97931,50.67095],[2.97924,50.67095],[2.97895,50.67086],[2.97766,50.67029],[2.97766,50.67042],[2.97662,50.67142],[2.97564,50.67245],[2.97481,50.67377],[2.97426,50.67417],[2.97383,50.6748],[2.97335,50.67535],[2.97209,50.67695],[2.97233,50.67701],[2.9738,50.67718],[2.97555,50.67755],[2.97613,50.67762],[2.97614,50.6776],[2.97628,50.67764],[2.97738,50.67778],[2.97741,50.67778],[2.97741,50.67779],[2.97756,50.67781],[2.97758,50.67781],[2.97797,50.67785],[2.97797,50.67785],[2.98115,50.67825],[2.98611,50.67829],[2.99101,50.67774],[2.99566,50.67664],[2.99991,50.67502],[3.00266,50.67347],[3.00269,50.67345],[3.00276,50.67344],[3.00311,50.67332],[3.00472,50.67291],[3.0067,50.67235],[3.00679,50.67232],[3.00708,50.67225],[3.0072,50.67222],[3.00902,50.67168],[3.00917,50.67164],[3.01229,50.67046],[3.01288,50.6702],[3.01308,50.67011],[3.01313,50.6701],[3.01359,50.66989],[3.01373,50.66983],[3.01414,50.66965],[3.01529,50.66911],[3.01534,50.66909],[3.01571,50.6689],[3.0159,50.6688],[3.01726,50.66805],[3.01745,50.66794],[3.01849,50.66728],[3.01872,50.66687]]]]}},{"type":"Feature","properties":{"code_udi":"033002228"},"geometry":{"type":"MultiPolygon","coordinates":[[[[-0.54447,44.87429],[-0.54918,44.87417],[-0.55382,44.87283],[-0.55931,44.87116],[-0.56535,44.87192],[-0.57307,44.87202],[-0.57701,44.86935],[-0.58413,44.8733],[-0.59058,44.88721],[-0.58946,44.89945],[-0.58842,44.90479],[-0.58068,44.90869],[-0.58087,44.90941],[-0.57948,44.9094],[-0.57946,44.90909],[-0.58004,44.90808],[-0.57996,44.90781],[-0.57976,44.90773],[-0.57964,44.90769],[-0.57818,44.90771],[-0.57756,44.90791],[-0.57732,44.9081],[-0.57728,44.90868],[-0.57666,44.90892],[-0.57572,44.90904],[-0.57464,44.90889],[-0.57451,44.90885],[-0.57394,44.90891],[-0.57344,44.9091],[-0.57243,44.90917],[-0.57194,44.90936],[-0.57124,44.90938],[-0.57081,44.90966],[-0.57038,44.91013],[-0.56945,44.91046],[-0.56933,44.91068],[-0.56963,44.91153],[-0.5699,44.91189],[-0.57068,44.91219],[-0.57101,44.91245],[-0.57102,44.91263],[-0.57021,44.91288],[-0.56933,44.91303],[-0.5666,44.91301],[-0.56519,44.91268],[-0.5633,44.91282],[-0.56228,44.91262],[-0.56171,44.91268],[-0.56128,44.91291],[-0.56099,44.91364],[-0.56056,44.91397],[-0.56,44.91412],[-0.55923,44.914],[-0.55871,44.91379],[-0.55833,44.91375],[-0.55732,44.91378],[-0.55632,44.91403],[-0.55496,44.91474],[-0.5544,44.91494],[-0.55352,44.91491],[-0.55287,44.91474],[-0.55241,44.91431],[-0.55195,44.91409],[-0.55132,44.91411],[-0.55077,44.91444],[-0.55054,44.91498],[-0.5504,44.91593],[-0.54991,44.91613],[-0.54772,44.91668],[-0.54702,44.91544],[-0.54558,44.91218],[-0.54524,44.91156],[-0.54502,44.91107],[-0.54448,44.91018],[-0.54384,44.90885],[-0.54287,44.90721],[-0.54222,44.9057],[-0.54063,44.90289],[-0.53999,44.90142],[-0.53893,44.89934],[-0.53879,44.89885],[-0.5383,44.89782],[-0.53808,44.89724],[-0.53787,44.89693],[-0.53652,44.89399],[-0.5357,44.89023],[-0.53552,44.88911],[-0.53525,44.88615],[-0.53528,44.8843],[-0.5357,44.88231],[-0.53659,44.87995],[-0.53733,44.87822],[-0.53844,44.87625],[-0.53901,44.87511],[-0.5396,44.87429],[-0.53978,44.87398],[-0.54447,44.87429]]]]}},{"type":"Feature","properties":{"code_udi":"059004194"},"geometry":{"type":"MultiPolygon","coordinates":[[[[2.968,50.63134],[2.96773,50.63148],[2.96605,50.63071],[2.96756,50.62931],[2.96614,50.62832],[2.96651,50.62799],[2.96438,50.62717],[2.96597,50.62568],[2.96505,50.62524],[2.96393,50.62466],[2.96628,50.62321],[2.96579,50.62255],[2.96692,50.62169],[2.96432,50.62055],[2.96308,50.62019],[2.96351,50.61982],[2.96493,50.6203],[2.96605,50.61925],[2.96825,50.61675],[2.96887,50.61703],[2.9697,50.61646],[2.9649,50.61674],[2.96007,50.61761],[2.95558,50.61904],[2.95158,50.62097],[2.94822,50.62333],[2.948,50.62352],[2.94793,50.62358],[2.94755,50.62391],[2.94725,50.62416],[2.94689,50.62447],[2.94685,50.62451],[2.94643,50.62487],[2.94638,50.62491],[2.94626,50.62501],[2.94368,50.62778],[2.94368,50.62782],[2.94361,50.62785],[2.94358,50.62788],[2.94338,50.62824],[2.94475,50.62925],[2.94628,50.63027],[2.94675,50.63071],[2.94746,50.6304],[2.94823,50.63007],[2.94909,50.62952],[2.95011,50.63009],[2.95103,50.62953],[2.95196,50.63019],[2.9534,50.63093],[2.95409,50.63048],[2.95506,50.62945],[2.9558,50.6286],[2.9588,50.62985],[2.95983,50.62896],[2.96168,50.62971],[2.96213,50.62976],[2.96282,50.63076],[2.96418,50.62938],[2.96628,50.63011],[2.96508,50.63126],[2.97002,50.63366],[2.97058,50.63421],[2.97174,50.63365],[2.97058,50.63291],[2.96965,50.63224],[2.968,50.63134]]],[[[2.97457,50.61591],[2.97486,50.61622],[2.97711,50.61843],[2.97747,50.61843],[2.97972,50.6176],[2.98063,50.61723],[2.98446,50.6161],[2.98509,50.61662],[2.98557,50.61658],[2.98547,50.61642],[2.9863,50.61635],[2.98642,50.61649],[2.98684,50.61658],[2.98797,50.61648],[2.99065,50.61682],[2.99611,50.61801],[2.99639,50.6181],[2.99632,50.61819],[2.99612,50.61828],[2.9943,50.62022],[2.99417,50.62054],[2.99431,50.62094],[2.99509,50.6212],[2.9978,50.62151],[2.99787,50.62164],[2.99774,50.62276],[2.99726,50.6243],[3.00116,50.62526],[3.00165,50.6253],[3.00186,50.62508],[3.002,50.62442],[3.0023,50.62451],[3.00253,50.62468],[3.00277,50.6247],[3.00344,50.62465],[3.00418,50.62469],[3.00659,50.62521],[3.00782,50.62534],[3.01075,50.62564],[3.01313,50.62558],[3.01811,50.62529],[3.01953,50.62533],[3.01953,50.62484],[3.01988,50.62434],[3.02029,50.62403],[3.02084,50.62309],[3.02132,50.62146],[3.02172,50.62082],[3.02229,50.62033],[3.02277,50.62015],[3.02312,50.61975],[3.02414,50.6169],[3.02618,50.61532],[3.02779,50.61418],[3.02805,50.61387],[3.02784,50.61373],[3.0248,50.61344],[3.02451,50.61321],[3.02387,50.6125],[3.02406,50.61137],[3.0254,50.6111],[3.02652,50.61051],[3.02673,50.61029],[3.02766,50.60991],[3.02773,50.60982],[3.02801,50.60969],[3.02981,50.60855],[3.0308,50.60814],[3.03239,50.60725],[3.0331,50.60679],[3.03388,50.60624],[3.03528,50.60538],[3.03655,50.60487],[3.03767,50.60456],[3.03915,50.60437],[3.0395,50.60423],[3.04098,50.60423],[3.04155,50.60417],[3.04235,50.6052],[3.04256,50.60565],[3.0427,50.60574],[3.04328,50.60667],[3.04349,50.60667],[3.0442,50.60596],[3.04726,50.6035],[3.04809,50.60255],[3.04885,50.60134],[3.04906,50.6008],[3.04862,50.60067],[3.04763,50.60032],[3.04707,50.60032],[3.04651,50.60037],[3.04651,50.60033],[3.04672,50.60005],[3.0478,50.59842],[3.04573,50.59752],[3.04336,50.59658],[3.04166,50.59475],[3.04062,50.5937],[3.0399,50.59297],[3.03888,50.59164],[3.03831,50.5908],[3.03816,50.59075],[3.03726,50.59107],[3.03585,50.59139],[3.03494,50.59145],[3.02863,50.58991],[3.02835,50.58991],[3.02816,50.59135],[3.02796,50.59225],[3.02783,50.59283],[3.02596,50.59572],[3.02548,50.59666],[3.02534,50.59671],[3.02421,50.59636],[3.0237,50.59627],[3.0237,50.59636],[3.02273,50.59701],[3.02252,50.59723],[3.0198,50.59891],[3.01756,50.60008],[3.01706,50.59999],[3.01389,50.60105],[3.01213,50.60151],[3.01115,50.60188],[3.01094,50.60188],[3.01017,50.60219],[3.00386,50.6032],[3.00298,50.60073],[3.00266,50.60095],[2.99999,50.60355],[2.99811,50.60641],[2.99721,50.60903],[2.99633,50.60907],[2.9915,50.60988],[2.98884,50.61069],[2.98719,50.61083],[2.98201,50.612],[2.97731,50.61382],[2.97429,50.61561],[2.97457,50.61591]]]]}},{"type":"Feature","properties":{"code_udi":"033002240"},"geometry":{"type":"MultiPolygon","coordinates":[[[[-0.63762,44.81436],[-0.63504,44.81394],[-0.63236,44.81498],[-0.62833,44.81431],[-0.62431,44.81554],[-0.62289,44.81703],[-0.61948,44.8178],[-0.61695,44.819],[-0.61522,44.81943],[-0.61289,44.8209],[-0.61113,44.82193],[-0.609,44.822],[-0.60896,44.82198],[-0.60868,44.82167],[-0.60842,44.82137],[-0.60814,44.82144],[-0.6068,44.82176],[-0.60654,44.82173],[-0.60597,44.82095],[-0.60567,44.82053],[-0.60546,44.82031],[-0.6052,44.82005],[-0.60519,44.81987],[-0.60453,44.81991],[-0.60368,44.81991],[-0.60344,44.81906],[-0.60303,44.81849],[-0.60463,44.81755],[-0.60594,44.81715],[-0.60681,44.81704],[-0.60737,44.8168],[-0.60835,44.81619],[-0.60886,44.81599],[-0.61063,44.81483],[-0.61106,44.81459],[-0.61105,44.81446],[-0.61052,44.81398],[-0.6071,44.81145],[-0.60703,44.81132],[-0.60726,44.81082],[-0.60675,44.81078],[-0.60581,44.81099],[-0.60568,44.80825],[-0.60526,44.80631],[-0.60533,44.80523],[-0.60549,44.80408],[-0.60603,44.80013],[-0.60627,44.7999],[-0.60655,44.79955],[-0.60788,44.79962],[-0.61313,44.80072],[-0.61797,44.80254],[-0.62083,44.80423],[-0.62503,44.80535],[-0.62519,44.80543],[-0.62653,44.80576],[-0.63126,44.80781],[-0.63136,44.80786],[-0.63516,44.81036],[-0.63822,44.81332],[-0.63876,44.81415],[-0.63762,44.81436]]]]}},{"type":"Feature","properties":{"code_udi":"033002019"},"geometry":{"type":"MultiPolygon","coordinates":[[[[-0.54802,44.83593],[-0.54468,44.83402],[-0.53755,44.82991],[-0.53729,44.82977],[-0.53618,44.82908],[-0.53574,44.82887],[-0.53365,44.82766],[-0.53648,44.82606],[-0.53647,44.82597],[-0.53568,44.8254],[-0.53476,44.82462],[-0.53456,44.82435],[-0.53468,44.8243],[-0.53591,44.82364],[-0.53759,44.82292],[-0.53765,44.82279],[-0.53784,44.82274],[-0.54018,44.82155],[-0.54086,44.82127],[-0.54123,44.82104],[-0.54166,44.8208],[-0.54172,44.82071],[-0.5431,44.81993],[-0.54376,44.81957],[-0.54444,44.81929],[-0.54542,44.81872],[-0.55184,44.81541],[-0.55264,44.81494],[-0.55405,44.81423],[-0.55448,44.81395],[-0.55504,44.81371],[-0.55657,44.81286],[-0.55738,44.81252],[-0.55833,44.8125],[-0.57267,44.81488],[-0.57529,44.81653],[-0.57548,44.81657],[-0.57575,44.81684],[-0.57659,44.81731],[-0.58078,44.81991],[-0.58156,44.82043],[-0.58769,44.82441],[-0.59092,44.82826],[-0.59459,44.83274],[-0.59722,44.83696],[-0.59012,44.83743],[-0.58242,44.83763],[-0.57643,44.83779],[-0.56828,44.8377],[-0.5606,44.8382],[-0.55725,44.83982],[-0.55201,44.83782],[-0.54811,44.83599],[-0.54802,44.83593]]]]}},{"type":"Feature","properties":{"code_udi":"059000722"},"geometry":{"type":"MultiPolygon","coordinates":[[[[3.01094,50.60188],[3.01115,50.60188],[3.01213,50.60151],[3.01389,50.60105],[3.01706,50.59999],[3.01756,50.60008],[3.0198,50.59891],[3.02252,50.59723],[3.02273,50.59701],[3.0237,50.59636],[3.0237,50.59627],[3.02421,50.59636],[3.02534,50.59671],[3.02548,50.59666],[3.02596,50.59572],[3.02783,50.59283],[3.02796,50.59225],[3.02563,50.59181],[3.02391,50.59137],[3.02205,50.59061],[3.02088,50.591],[3.02032,50.59123],[3.01899,50.59181],[3.01855,50.59201],[3.01822,50.59217],[3.01821,50.59217],[3.01696,50.59281],[3.01656,50.59303],[3.01479,50.59407],[3.01469,50.59414],[3.01468,50.59415],[3.01449,50.59425],[3.01435,50.59434],[3.01434,50.59434],[3.01428,50.59437],[3.01396,50.59456],[3.01362,50.59475],[3.01308,50.59506],[3.01292,50.59515],[3.01226,50.59554],[3.01182,50.59575],[3.01159,50.59588],[3.00995,50.59688],[3.00602,50.5987],[3.00298,50.60073],[3.00386,50.6032],[3.01017,50.60219],[3.01094,50.60188]]]]}},{"type":"Feature","properties":{"code_udi":"059004195"},"geometry":{"type":"MultiPolygon","coordinates":[[[[3.07723,50.67326],[3.07674,50.67309],[3.07623,50.67309],[3.07605,50.67313],[3.07762,50.67345],[3.07723,50.67326]]],[[[3.07279,50.6716],[3.07244,50.6711],[3.07237,50.67094],[3.07241,50.67079],[3.07262,50.67069],[3.07277,50.67064],[3.07309,50.67062],[3.07333,50.67057],[3.0735,50.67053],[3.07385,50.67045],[3.07453,50.66997],[3.07237,50.66848],[3.07314,50.66772],[3.07081,50.66716],[3.07059,50.66762],[3.06967,50.66741],[3.06987,50.66692],[3.06909,50.66675],[3.06899,50.66649],[3.07113,50.66422],[3.07274,50.66251],[3.07315,50.66214],[3.07351,50.66173],[3.07401,50.66137],[3.07406,50.66065],[3.07615,50.66065],[3.07645,50.65988],[3.07697,50.6591],[3.07669,50.65891],[3.07728,50.65807],[3.07877,50.65725],[3.07911,50.65718],[3.07846,50.65612],[3.08007,50.6555],[3.07923,50.65408],[3.08232,50.65301],[3.08231,50.65276],[3.0819,50.65205],[3.08354,50.65155],[3.08325,50.65095],[3.08349,50.65082],[3.08177,50.64971],[3.08129,50.6499],[3.08046,50.64912],[3.08299,50.64725],[3.07861,50.64542],[3.07811,50.64509],[3.07788,50.64481],[3.07753,50.64381],[3.0758,50.64453],[3.07554,50.64414],[3.0756,50.64307],[3.07526,50.64188],[3.07469,50.6417],[3.07401,50.64258],[3.07359,50.64284],[3.07253,50.64329],[3.07203,50.64355],[3.07158,50.64391],[3.07126,50.6444],[3.07095,50.64521],[3.07102,50.64579],[3.07023,50.64706],[3.06903,50.64812],[3.06705,50.64936],[3.06576,50.64994],[3.06414,50.65041],[3.06274,50.6507],[3.06159,50.65088],[3.06047,50.65099],[3.0596,50.65105],[3.05968,50.65055],[3.05937,50.65015],[3.05948,50.64998],[3.05784,50.64927],[3.05745,50.64951],[3.05704,50.64933],[3.05632,50.64969],[3.05611,50.64952],[3.05583,50.64967],[3.0554,50.64957],[3.05465,50.65067],[3.05395,50.65023],[3.05372,50.65037],[3.05357,50.65027],[3.05244,50.65055],[3.05224,50.65023],[3.05189,50.64994],[3.05166,50.64988],[3.05152,50.64975],[3.05097,50.64954],[3.05055,50.64949],[3.05132,50.64866],[3.05009,50.64873],[3.04985,50.64839],[3.04837,50.64832],[3.04848,50.64787],[3.04774,50.6478],[3.04582,50.64807],[3.0444,50.64744],[3.04394,50.64719],[3.04343,50.64696],[3.04229,50.64643],[3.04178,50.64619],[3.0409,50.64577],[3.04011,50.64536],[3.03888,50.64467],[3.03836,50.64424],[3.03809,50.64396],[3.03791,50.64379],[3.03778,50.6436],[3.03747,50.64317],[3.03736,50.64296],[3.0371,50.64246],[3.03686,50.64147],[3.03673,50.6401],[3.03676,50.63888],[3.03562,50.63863],[3.03477,50.63833],[3.03414,50.6382],[3.03343,50.63771],[3.03248,50.63695],[3.03157,50.63646],[3.03113,50.63632],[3.029,50.63521],[3.0288,50.63528],[3.02396,50.63171],[3.02102,50.63109],[3.01942,50.62533],[3.01811,50.62529],[3.01313,50.62558],[3.01075,50.62564],[3.00782,50.62534],[3.00659,50.62521],[3.00418,50.62469],[3.00344,50.62465],[3.00277,50.6247],[3.00253,50.62468],[3.0023,50.62451],[3.002,50.62442],[3.00186,50.62508],[3.00165,50.6253],[3.00116,50.62526],[2.99726,50.6243],[2.99774,50.62276],[2.99787,50.62164],[2.9978,50.62151],[2.99509,50.6212],[2.99431,50.62094],[2.99417,50.62054],[2.9943,50.62022],[2.99612,50.61828],[2.99632,50.61819],[2.99639,50.6181],[2.99611,50.61801],[2.99065,50.61682],[2.98797,50.61648],[2.98684,50.61658],[2.98642,50.61649],[2.9863,50.61635],[2.98547,50.61642],[2.98557,50.61658],[2.98509,50.61662],[2.98446,50.6161],[2.98063,50.61723],[2.97972,50.6176],[2.97747,50.61843],[2.97711,50.61843],[2.97486,50.61622],[2.97457,50.61591],[2.97429,50.61561],[2.97329,50.6162],[2.97296,50.61644],[2.97296,50.61645],[2.97285,50.61652],[2.97272,50.61662],[2.9699,50.61645],[2.9697,50.61646],[2.96887,50.61703],[2.96825,50.61675],[2.96605,50.61925],[2.96493,50.6203],[2.96351,50.61982],[2.96308,50.62019],[2.96432,50.62055],[2.96692,50.62169],[2.96579,50.62255],[2.96628,50.62321],[2.96393,50.62466],[2.96505,50.62524],[2.96597,50.62568],[2.96438,50.62717],[2.96651,50.62799],[2.96614,50.62832],[2.96756,50.62931],[2.96605,50.63071],[2.96773,50.63148],[2.968,50.63134],[2.96965,50.63224],[2.97058,50.63291],[2.97174,50.63365],[2.97058,50.63421],[2.97002,50.63366],[2.96788,50.63542],[2.96956,50.63506],[2.97028,50.63575],[2.97054,50.63633],[2.97046,50.6365],[2.96878,50.63833],[2.96997,50.63905],[2.97039,50.6395],[2.97118,50.64035],[2.97192,50.64122],[2.97218,50.64144],[2.97275,50.64183],[2.97242,50.64324],[2.97225,50.64381],[2.9745,50.64442],[2.97451,50.64558],[2.97474,50.64648],[2.97438,50.64711],[2.97314,50.64847],[2.97293,50.64883],[2.97217,50.64956],[2.97091,50.65108],[2.97092,50.65221],[2.97023,50.65294],[2.96975,50.65361],[2.96969,50.65483],[2.97047,50.65504],[2.97061,50.65513],[2.96929,50.65739],[2.96937,50.65753],[2.97072,50.6581],[2.97199,50.65841],[2.97263,50.65872],[2.97361,50.65876],[2.97426,50.65898],[2.97518,50.65897],[2.97534,50.6592],[2.97534,50.65929],[2.97632,50.65956],[2.97647,50.65951],[2.97647,50.6592],[2.97703,50.65923],[2.97872,50.66008],[2.97973,50.66048],[2.98066,50.66052],[2.98179,50.66082],[2.9832,50.6609],[2.98355,50.66099],[2.98369,50.66123],[2.98433,50.66104],[2.98537,50.66036],[2.98573,50.66004],[2.9865,50.65959],[2.9889,50.65881],[2.9896,50.65845],[2.99185,50.65785],[2.99396,50.65725],[2.9963,50.65666],[2.9977,50.6562],[2.99903,50.65552],[3.00035,50.65453],[3.0026,50.6524],[3.00274,50.65235],[3.00522,50.65311],[3.00798,50.6534],[3.00898,50.65366],[3.00926,50.65366],[3.00954,50.65339],[3.00997,50.65321],[3.01032,50.6533],[3.01067,50.65356],[3.01069,50.65388],[3.01007,50.65569],[3.00856,50.65843],[3.00841,50.65857],[3.00863,50.65874],[3.0097,50.65923],[3.01069,50.65954],[3.01146,50.65982],[3.01275,50.66048],[3.01433,50.66159],[3.01468,50.66173],[3.01597,50.66257],[3.0171,50.66319],[3.01809,50.66354],[3.01817,50.66368],[3.01797,50.66508],[3.01804,50.66539],[3.0184,50.66557],[3.01875,50.66566],[3.01891,50.66584],[3.01872,50.66687],[3.01849,50.66728],[3.01876,50.66711],[3.01892,50.66701],[3.02045,50.66587],[3.02062,50.66574],[3.02075,50.66563],[3.02112,50.66533],[3.0215,50.66501],[3.02215,50.66445],[3.02226,50.66435],[3.02288,50.66368],[3.02551,50.6628],[3.02571,50.6627],[3.02627,50.66245],[3.02652,50.66233],[3.02655,50.66232],[3.02856,50.66121],[3.03,50.66187],[3.03484,50.66366],[3.03528,50.66375],[3.03602,50.66419],[3.04025,50.66587],[3.04489,50.66703],[3.0498,50.66763],[3.05133,50.66763],[3.05435,50.66783],[3.05492,50.6678],[3.05658,50.66802],[3.0616,50.66808],[3.06192,50.66806],[3.06289,50.66801],[3.0635,50.66796],[3.06414,50.66791],[3.06441,50.66789],[3.06572,50.66895],[3.06978,50.67115],[3.0727,50.67218],[3.07279,50.6716]]]]}},{"type":"Feature","properties":{"code_udi":"059000545"},"geometry":{"type":"MultiPolygon","coordinates":[[[[3.02102,50.63109],[3.02396,50.63171],[3.0288,50.63528],[3.029,50.63521],[3.03113,50.63632],[3.03157,50.63646],[3.03248,50.63695],[3.03343,50.63771],[3.03414,50.6382],[3.03477,50.63833],[3.03562,50.63863],[3.03676,50.63888],[3.03673,50.6401],[3.03686,50.64147],[3.0371,50.64246],[3.03736,50.64296],[3.03747,50.64317],[3.03778,50.6436],[3.03791,50.64379],[3.03809,50.64396],[3.03836,50.64424],[3.03888,50.64467],[3.04011,50.64536],[3.0409,50.64577],[3.04178,50.64619],[3.04229,50.64643],[3.04343,50.64696],[3.04394,50.64719],[3.0444,50.64744],[3.04582,50.64807],[3.04774,50.6478],[3.04848,50.64787],[3.04837,50.64832],[3.04985,50.64839],[3.05009,50.64873],[3.05132,50.64866],[3.05055,50.64949],[3.05097,50.64954],[3.05152,50.64975],[3.05166,50.64988],[3.05189,50.64994],[3.05224,50.65023],[3.05244,50.65055],[3.05357,50.65027],[3.05372,50.65037],[3.05395,50.65023],[3.05465,50.65067],[3.0554,50.64957],[3.05583,50.64967],[3.05611,50.64952],[3.05632,50.64969],[3.05704,50.64933],[3.05745,50.64951],[3.05784,50.64927],[3.05948,50.64998],[3.05937,50.65015],[3.05968,50.65055],[3.0596,50.65105],[3.06047,50.65099],[3.06159,50.65088],[3.06274,50.6507],[3.06414,50.65041],[3.06576,50.64994],[3.06705,50.64936],[3.06903,50.64812],[3.07023,50.64706],[3.07102,50.64579],[3.07095,50.64521],[3.07126,50.6444],[3.07158,50.64391],[3.07203,50.64355],[3.07253,50.64329],[3.07359,50.64284],[3.07401,50.64258],[3.07469,50.6417],[3.07496,50.64179],[3.08826,50.62507],[3.08512,50.62346],[3.0812,50.62259],[3.08158,50.62022],[3.08335,50.62021],[3.08574,50.61771],[3.0841,50.61701],[3.08421,50.61678],[3.08188,50.61572],[3.07948,50.61428],[3.07859,50.61354],[3.07887,50.61336],[3.07527,50.61039],[3.07536,50.60991],[3.07488,50.60986],[3.07396,50.60883],[3.0731,50.60793],[3.07146,50.6066],[3.07063,50.60701],[3.0695,50.60782],[3.06888,50.60868],[3.06819,50.60918],[3.06719,50.60954],[3.06572,50.61028],[3.06502,50.61046],[3.06377,50.61128],[3.06251,50.61213],[3.06223,50.61223],[3.05925,50.60659],[3.05759,50.60425],[3.05709,50.60376],[3.05665,50.60313],[3.05628,50.60278],[3.05549,50.60171],[3.05463,50.60077],[3.05399,50.60082],[3.05196,50.60105],[3.05195,50.60069],[3.05068,50.60057],[3.04975,50.60058],[3.04955,50.6008],[3.04906,50.6008],[3.04885,50.60134],[3.04809,50.60255],[3.04726,50.6035],[3.0442,50.60596],[3.04349,50.60667],[3.04328,50.60667],[3.0427,50.60574],[3.04256,50.60565],[3.04235,50.6052],[3.04155,50.60417],[3.04098,50.60423],[3.0395,50.60423],[3.03915,50.60437],[3.03767,50.60456],[3.03655,50.60487],[3.03528,50.60538],[3.03388,50.60624],[3.0331,50.60679],[3.03239,50.60725],[3.0308,50.60814],[3.02981,50.60855],[3.02801,50.60969],[3.02773,50.60982],[3.02766,50.60991],[3.02673,50.61029],[3.02652,50.61051],[3.0254,50.6111],[3.02406,50.61137],[3.02387,50.6125],[3.02451,50.61321],[3.0248,50.61344],[3.02784,50.61373],[3.02805,50.61387],[3.02779,50.61418],[3.02618,50.61532],[3.02414,50.6169],[3.02312,50.61975],[3.02277,50.62015],[3.02229,50.62033],[3.02172,50.62082],[3.02132,50.62146],[3.02084,50.62309],[3.02029,50.62403],[3.01988,50.62434],[3.01953,50.62484],[3.01953,50.62533],[3.01942,50.62533],[3.02102,50.63109]]]]}},{"type":"Feature","properties":{"code_udi":"033002239"},"geometry":{"type":"MultiPolygon","coordinates":[[[[-0.51584,44.82101],[-0.51354,44.82145],[-0.51318,44.82173],[-0.51288,44.8221],[-0.51178,44.82293],[-0.51015,44.82464],[-0.50909,44.82624],[-0.50771,44.82757],[-0.5069,44.82791],[-0.50645,44.82802],[-0.50671,44.82488],[-0.50807,44.8212],[-0.50834,44.82082],[-0.509,44.81854],[-0.51119,44.81494],[-0.51438,44.81173],[-0.51841,44.80906],[-0.51965,44.8084],[-0.52059,44.80791],[-0.52178,44.80733],[-0.52333,44.80649],[-0.52386,44.8062],[-0.52386,44.8062],[-0.52406,44.80624],[-0.52712,44.80531],[-0.52762,44.80521],[-0.52894,44.809],[-0.52922,44.80962],[-0.53018,44.81244],[-0.53045,44.81288],[-0.53067,44.81351],[-0.53115,44.81408],[-0.53233,44.81625],[-0.53488,44.81991],[-0.53646,44.82174],[-0.53765,44.82279],[-0.53759,44.82292],[-0.53591,44.82364],[-0.53468,44.8243],[-0.53456,44.82435],[-0.53476,44.82462],[-0.53568,44.8254],[-0.53647,44.82597],[-0.53648,44.82606],[-0.53365,44.82766],[-0.53574,44.82887],[-0.53618,44.82908],[-0.53729,44.82977],[-0.53755,44.82991],[-0.54802,44.83593],[-0.54811,44.83599],[-0.54805,44.83617],[-0.5469,44.83732],[-0.54559,44.83889],[-0.54456,44.83977],[-0.54281,44.84175],[-0.54252,44.84216],[-0.54221,44.8424],[-0.54087,44.84216],[-0.53885,44.8422],[-0.53715,44.84238],[-0.53283,44.84313],[-0.53063,44.84353],[-0.5295,44.84365],[-0.52893,44.84367],[-0.51584,44.82101]]]]}},{"type":"Feature","properties":{"code_udi":"033000494"},"geometry":{"type":"MultiPolygon","coordinates":[[[[-0.53166,44.93179],[-0.53241,44.9302],[-0.53254,44.9302],[-0.53318,44.93031],[-0.53401,44.93039],[-0.53472,44.92938],[-0.53489,44.92915],[-0.53563,44.92756],[-0.53569,44.92747],[-0.53613,44.92611],[-0.53612,44.92584],[-0.53625,44.9257],[-0.53656,44.92443],[-0.53672,44.92375],[-0.53849,44.92379],[-0.53902,44.9241],[-0.53953,44.92431],[-0.54143,44.9243],[-0.54365,44.92425],[-0.54528,44.92394],[-0.54982,44.92346],[-0.54989,44.92364],[-0.55041,44.92629],[-0.5504,44.92733],[-0.5507,44.93218],[-0.55038,44.93489],[-0.55019,44.93567],[-0.54573,44.93571],[-0.54069,44.93508],[-0.53591,44.93379],[-0.53163,44.93191],[-0.53166,44.93179]]]]}},{"type":"Feature","properties":{"code_udi":"033001214"},"geometry":{"type":"MultiPolygon","coordinates":[[[[-0.55201,44.83782],[-0.55725,44.83982],[-0.5606,44.8382],[-0.56828,44.8377],[-0.57643,44.83779],[-0.58242,44.83763],[-0.59012,44.83743],[-0.59722,44.83696],[-0.59739,44.83723],[-0.59766,44.84241],[-0.59746,44.84668],[-0.59401,44.85311],[-0.59065,44.85749],[-0.58715,44.86153],[-0.58018,44.86422],[-0.57573,44.86595],[-0.57615,44.86993],[-0.57307,44.87202],[-0.56535,44.87192],[-0.55931,44.87116],[-0.55382,44.87283],[-0.54918,44.87417],[-0.54447,44.87429],[-0.53978,44.87398],[-0.54024,44.87319],[-0.54036,44.87301],[-0.54094,44.87173],[-0.54149,44.86898],[-0.54149,44.86897],[-0.54143,44.86889],[-0.53893,44.86837],[-0.53664,44.8681],[-0.5365,44.86775],[-0.53646,44.86698],[-0.53709,44.86422],[-0.53783,44.86155],[-0.53783,44.86128],[-0.53837,44.85942],[-0.53882,44.85837],[-0.53911,44.85652],[-0.53916,44.85485],[-0.53892,44.85387],[-0.53841,44.85257],[-0.53802,44.85119],[-0.5376,44.85002],[-0.53748,44.84903],[-0.5377,44.84714],[-0.53817,44.84636],[-0.54034,44.84415],[-0.54216,44.84253],[-0.54221,44.8424],[-0.54252,44.84216],[-0.54281,44.84175],[-0.54456,44.83977],[-0.54559,44.83889],[-0.5469,44.83732],[-0.54805,44.83617],[-0.54811,44.83599],[-0.55201,44.83782]]]]}},{"type":"Feature","properties":{"code_udi":"033000496"},"geometry":{"type":"MultiPolygon","coordinates":[[[[-0.60627,44.7999],[-0.60603,44.80013],[-0.60549,44.80408],[-0.5746,44.81457],[-0.57376,44.81175],[-0.57324,44.80727],[-0.57021,44.80068],[-0.56759,44.79441],[-0.56732,44.79228],[-0.56873,44.79198],[-0.57411,44.79162],[-0.57948,44.79203],[-0.58462,44.79319],[-0.58934,44.79506],[-0.59343,44.79756],[-0.5961,44.79999],[-0.59698,44.79978],[-0.60242,44.79931],[-0.60655,44.79955],[-0.60627,44.7999]]]]}},{"type":"Feature","properties":{"code_udi":"033000460"},"geometry":{"type":"MultiPolygon","coordinates":[[[[-0.52762,44.80521],[-0.52712,44.80531],[-0.52406,44.80624],[-0.52386,44.8062],[-0.52386,44.8062],[-0.52417,44.80603],[-0.52425,44.80599],[-0.52444,44.80589],[-0.52477,44.80571],[-0.52503,44.80558],[-0.52503,44.80558],[-0.5253,44.80543],[-0.52557,44.80528],[-0.52558,44.80528],[-0.52705,44.80449],[-0.52711,44.80446],[-0.52717,44.80443],[-0.52741,44.8043],[-0.52762,44.80521]]]]}},{"type":"Feature","properties":{"code_udi":"033001174"},"geometry":{"type":"MultiPolygon","coordinates":[[[[-0.5958,44.90912],[-0.59498,44.90914],[-0.59467,44.90924],[-0.59314,44.90919],[-0.59283,44.90929],[-0.59207,44.90926],[-0.58983,44.90873],[-0.58847,44.90832],[-0.58803,44.90824],[-0.58727,44.90835],[-0.58678,44.90859],[-0.58558,44.90875],[-0.58483,44.90881],[-0.58402,44.9091],[-0.58288,44.90913],[-0.58207,44.90942],[-0.58087,44.90941],[-0.58068,44.90869],[-0.58842,44.90479],[-0.58946,44.89945],[-0.59058,44.88721],[-0.58413,44.8733],[-0.57701,44.86935],[-0.57615,44.86993],[-0.57573,44.86595],[-0.58018,44.86422],[-0.58715,44.86153],[-0.59065,44.85749],[-0.59401,44.85311],[-0.59746,44.84668],[-0.59766,44.84241],[-0.59739,44.83723],[-0.59459,44.83274],[-0.59092,44.82826],[-0.58769,44.82441],[-0.58777,44.82446],[-0.58809,44.82458],[-0.58842,44.82481],[-0.59095,44.82441],[-0.59268,44.82341],[-0.59372,44.82214],[-0.5939,44.82187],[-0.59555,44.82061],[-0.59566,44.82057],[-0.59678,44.82009],[-0.5968,44.82008],[-0.59725,44.81992],[-0.5992,44.81894],[-0.59971,44.81893],[-0.60041,44.819],[-0.60071,44.81899],[-0.60167,44.81898],[-0.60217,44.81887],[-0.60279,44.81859],[-0.60303,44.81849],[-0.60342,44.81902],[-0.60344,44.81906],[-0.60368,44.81991],[-0.60453,44.81991],[-0.60519,44.81987],[-0.6052,44.82005],[-0.60546,44.82031],[-0.60567,44.82053],[-0.60597,44.82095],[-0.60654,44.82173],[-0.6068,44.82176],[-0.60814,44.82144],[-0.60842,44.82137],[-0.60868,44.82167],[-0.60896,44.82198],[-0.609,44.822],[-0.61113,44.82193],[-0.61289,44.8209],[-0.61522,44.81943],[-0.61695,44.819],[-0.61948,44.8178],[-0.62289,44.81703],[-0.62431,44.81554],[-0.62833,44.81431],[-0.63236,44.81498],[-0.63504,44.81394],[-0.63762,44.81436],[-0.63876,44.81415],[-0.64042,44.81665],[-0.64168,44.82021],[-0.64191,44.82318],[-0.64456,44.82446],[-0.6487,44.82764],[-0.64912,44.82804],[-0.64941,44.82833],[-0.64965,44.82857],[-0.65038,44.82945],[-0.65066,44.82969],[-0.65084,44.82988],[-0.65095,44.82999],[-0.65153,44.83082],[-0.65177,44.8311],[-0.65191,44.83134],[-0.65277,44.83255],[-0.65365,44.8333],[-0.65484,44.83487],[-0.65613,44.83601],[-0.6562,44.83609],[-0.65848,44.83922],[-0.65934,44.84125],[-0.66159,44.84393],[-0.66341,44.8477],[-0.66393,44.85071],[-0.66399,44.8507],[-0.66403,44.85095],[-0.66403,44.85106],[-0.66491,44.85307],[-0.66546,44.85669],[-0.66539,44.85726],[-0.66563,44.85852],[-0.66553,44.85961],[-0.66539,44.86249],[-0.66419,44.86614],[-0.66384,44.86687],[-0.66157,44.8704],[-0.65882,44.87306],[-0.6587,44.87331],[-0.65796,44.87421],[-0.65731,44.87589],[-0.65728,44.87595],[-0.65708,44.87647],[-0.656,44.87866],[-0.6558,44.879],[-0.65321,44.8824],[-0.64971,44.88535],[-0.64544,44.88775],[-0.64057,44.88949],[-0.63532,44.8905],[-0.62988,44.89074],[-0.62449,44.8902],[-0.61936,44.8889],[-0.6147,44.8869],[-0.61452,44.88681],[-0.61202,44.88529],[-0.61088,44.88451],[-0.61088,44.88451],[-0.61032,44.88411],[-0.61013,44.88398],[-0.61008,44.88395],[-0.60983,44.88378],[-0.60974,44.88372],[-0.60964,44.88366],[-0.60921,44.88339],[-0.60803,44.8826],[-0.60799,44.88257],[-0.60709,44.88197],[-0.60704,44.88193],[-0.60631,44.88143],[-0.6058,44.88109],[-0.60546,44.88086],[-0.605,44.88056],[-0.60479,44.88041],[-0.60462,44.88029],[-0.60456,44.88025],[-0.60431,44.88007],[-0.60499,44.8857],[-0.60505,44.88634],[-0.6054,44.89108],[-0.6055,44.89136],[-0.60594,44.89473],[-0.6059,44.89499],[-0.60598,44.89589],[-0.60603,44.89699],[-0.60603,44.8971],[-0.60605,44.89728],[-0.60607,44.89747],[-0.60616,44.89827],[-0.60629,44.89945],[-0.60642,44.90055],[-0.60644,44.90068],[-0.60645,44.90081],[-0.60665,44.90261],[-0.60681,44.90402],[-0.60693,44.90513],[-0.60695,44.90527],[-0.60696,44.90538],[-0.60705,44.90622],[-0.60708,44.90644],[-0.60561,44.90747],[-0.60394,44.90833],[-0.603,44.90858],[-0.60143,44.90871],[-0.59974,44.90929],[-0.59834,44.90932],[-0.5958,44.90912]]]]}},{"type":"Feature","properties":{"code_udi":"033002236"},"geometry":{"type":"MultiPolygon","coordinates":[[[[-0.60071,44.81899],[-0.5968,44.82008],[-0.59566,44.82057],[-0.59372,44.82214],[-0.59268,44.82341],[-0.59095,44.82441],[-0.58842,44.82481],[-0.58809,44.82458],[-0.58777,44.82446],[-0.58156,44.82043],[-0.58078,44.81991],[-0.57659,44.81731],[-0.57575,44.81684],[-0.57548,44.81657],[-0.57446,44.81462],[-0.60549,44.80408],[-0.60533,44.80523],[-0.60526,44.80631],[-0.60568,44.80825],[-0.60581,44.81099],[-0.60675,44.81078],[-0.60726,44.81082],[-0.60703,44.81132],[-0.6071,44.81145],[-0.61052,44.81398],[-0.61105,44.81446],[-0.61106,44.81459],[-0.61063,44.81483],[-0.60886,44.81599],[-0.60835,44.81619],[-0.60737,44.8168],[-0.60681,44.81704],[-0.60594,44.81715],[-0.60463,44.81755],[-0.60303,44.81849],[-0.60342,44.81902],[-0.60071,44.81899]]]]}},{"type":"Feature","properties":{"code_udi":"059000948"},"geometry":{"type":"MultiPolygon","coordinates":[[[[3.11826,50.6085],[3.11847,50.60868],[3.11958,50.60836],[3.12106,50.60776],[3.12353,50.60689],[3.12423,50.60653],[3.12464,50.6064],[3.12849,50.60389],[3.13005,50.60321],[3.12957,50.60281],[3.12996,50.60256],[3.12897,50.60192],[3.12847,50.60184],[3.12819,50.60183],[3.12574,50.60123],[3.12059,50.60065],[3.11946,50.60066],[3.11582,50.59948],[3.11063,50.59856],[3.10527,50.59832],[3.10276,50.59852],[3.10375,50.59888],[3.1062,50.60062],[3.10683,50.60115],[3.11011,50.60356],[3.11056,50.60401],[3.11169,50.60391],[3.11238,50.60382],[3.11282,50.60414],[3.11303,50.60454],[3.11396,50.60543],[3.11398,50.60619],[3.11357,50.60718],[3.11357,50.60777],[3.11495,50.60964],[3.11826,50.6085]]],[[[3.06018,50.58469],[3.05983,50.58469],[3.0568,50.58421],[3.05633,50.58403],[3.0547,50.58403],[3.0546,50.58401],[3.05426,50.58399],[3.05336,50.58394],[3.05129,50.58384],[3.05132,50.58869],[3.05074,50.58961],[3.0423,50.58831],[3.03505,50.5903],[3.03585,50.59139],[3.03726,50.59107],[3.03816,50.59075],[3.03831,50.5908],[3.03888,50.59164],[3.0399,50.59297],[3.04062,50.5937],[3.04166,50.59475],[3.04336,50.59658],[3.04573,50.59752],[3.0478,50.59842],[3.04672,50.60005],[3.04651,50.60033],[3.04651,50.60037],[3.04707,50.60032],[3.04763,50.60032],[3.04862,50.60067],[3.04906,50.6008],[3.04955,50.6008],[3.04975,50.60058],[3.05068,50.60057],[3.05195,50.60069],[3.05196,50.60105],[3.05399,50.60082],[3.05463,50.60077],[3.05363,50.59942],[3.05377,50.59933],[3.05468,50.59946],[3.05694,50.59935],[3.05865,50.59908],[3.06053,50.59866],[3.0618,50.59852],[3.06307,50.59852],[3.06378,50.5986],[3.06341,50.59784],[3.06205,50.59671],[3.06205,50.59595],[3.06223,50.59547],[3.06823,50.59835],[3.07154,50.60007],[3.07661,50.6001],[3.07749,50.5996],[3.07815,50.60013],[3.08026,50.60016],[3.08129,50.59831],[3.08295,50.59855],[3.0827,50.59882],[3.0843,50.59958],[3.08401,50.5998],[3.08498,50.60017],[3.08811,50.59945],[3.09134,50.59904],[3.09096,50.59882],[3.09298,50.59768],[3.09426,50.5987],[3.09507,50.59837],[3.0947,50.59812],[3.09447,50.59791],[3.09425,50.59772],[3.0941,50.59759],[3.09348,50.59708],[3.09339,50.597],[3.09333,50.59696],[3.09319,50.59684],[3.09282,50.59653],[3.09275,50.59648],[3.0926,50.59635],[3.08909,50.59398],[3.08493,50.59207],[3.08029,50.5907],[3.07531,50.58991],[3.07468,50.58989],[3.07223,50.58821],[3.06773,50.58617],[3.06268,50.58476],[3.0601,50.58441],[3.06018,50.58469]]]]}}]}